#dP2021  7 29  0  0  0.00000000      96 __u+U ITR00 FIT  IAC
## 2168 345600.00000000   900.00000000 59424 0.0000000000000
+  127   C01C02C03C04C05C06C07C08C09C10C11C12C13C14C16C19C20
+        C21C22C23C24C25C26C27C28C29C30C32C33C34C35C36C37C38
+        C39C40C41C42C43C44C45C46C60E01E02E03E04E05E07E08E09
+        E11E12E13E14E15E18E19E21E24E25E26E27E30E31E33E36G01
+        G02G03G04G05G06G07G08G09G10G11G12G13G14G15G16G17G18
+        G19G20G21G22G23G24G25G26G27G28G29G30G31G32J01J02J03
+        J07R01R02R03R04R05R06R07R08R09R10R11R12R13R14R15R16
+        R17R18R19R20R21R22R23R24  0  0  0  0  0  0  0  0  0
++        13 12 12 13 13 10  9  9  9  9  9  9  9  9  9  8  7
++         8  8  8  8  8  8  8  8  8  8  8  8  8  8  8  8  9
++         8  9  8  8  8  8  8  8 13  4  5  5  4  5  4  4  5
++         5  4  4  4  5  5  4  4  5  5  4  4  4  5  5  5  3
++         4  4  4  4  4  4  4  4  3  4  4  4  4  4  4  4  4
++         4  4  4  4  4  4  4  4  4  4  4  4  4  3  9  8  8
++        14  7  5  5  6  6 13  6  6  6 13  8  6  7  6  6  8
++         6  6  8  8  6  8 13  6  0  0  0  0  0  0  0  0  0
%c M  cc GPS ccc cccc cccc cccc cccc ccccc ccccc ccccc ccccc
%c cc cc ccc ccc cccc cccc cccc cccc ccccc ccccc ccccc ccccc
%f  0.0000000  0.000000000  0.00000000000  0.000000000000000
%f  0.0000000  0.000000000  0.00000000000  0.000000000000000
%i    0    0    0    0      0      0      0      0         0
%i    0    0    0    0      0      0      0      0         0
/* INFORMATION & ANALYSIS CENTER (IAC)            RAPID DATA
/* S/V CLOCKS ARE ALIGNED TO GNSS TIME                      
/* G:C1WC2W R:C1PC2P E:C1XC5X C:C2IC6I J:C1CC2S             
/* PCV:IGS14_2163 OL/AL:FES2004  NONE     YN ORB:CoN CLK:CoN
*  2021 07 29 17  0  0.00000000
PC01 -34345.984781  24506.743637    -96.135613   -226.362573
PC02   4541.606906  41924.797130   -342.108243    467.644823
PC03 -14729.166584  39517.513069  -1202.120919   -414.852155
PC04 -39651.950556  14397.526309   -526.756994    -67.653283
PC05  21943.534895  36031.835196   -250.734637    -24.409063
PC06 -21904.745502  27668.872650  23194.862343    687.521487
PC07 -12241.093897  38188.050363  14173.080771     68.414575
PC08  -7766.104464  20168.884756 -36055.999191   -911.771835
PC09  -7610.109696  27065.622475  31607.075971     13.483079
PC10  -3034.246629  42218.502411   3146.000190    -13.770796
PC11  26731.244318  -7755.096918  -1562.675382    486.258487
PC12  21228.775505   4823.392767 -17415.083391    797.048491
PC13   5809.433385  27635.125277 -31135.611881    354.454314
PC14  16293.081380  -8655.911691  20940.585382    764.131753
PC16 -20563.773045  27673.785103  24260.860793   -890.106335
PC19 -14003.954346  18686.686995 -15271.523016    927.185715
PC20 -15955.044662   -414.858299 -22880.005700   -832.128216
PC21   8396.736947  20362.212884  17165.683721   -937.540399
PC22  -3939.593657  27607.050759   1435.895454   -948.936804
PC23  -2373.452746 -20141.486758 -19153.298363   -964.978103
PC24  23593.841466   9238.423647 -11669.618305   -963.717513
PC25  14401.846445  -8764.992304 -22235.228423   -878.411696
PC26  19192.747513  19747.978670   4407.701321    871.887966
PC27 -13386.807232 -11276.003970  21709.374856    572.307303
PC28   7092.570950 -17444.447537  20589.763682    -44.816357
PC29 -22844.555956  14244.533620  -7362.919713    426.139297
PC30 -25723.916230   2012.848527  10599.436480    475.697653
PC32  -8532.647748 -20303.351910 -17117.172445   -926.993900
PC33  13968.416726 -18640.280219  15356.448375   -948.975270
PC34  25978.962545  -2512.695719  -9914.645748   -617.041836
PC35  -6854.712636  17775.828278 -20390.472738   -164.406594
PC36 -14918.118019   8101.480234  22180.406841   -737.432679
PC37 -18195.643166 -20498.245717  -5259.145888   -862.570852
PC38  -6882.948985  23304.888853 -34432.420038    165.001475
PC39 -18556.936070  28984.003835  24274.782500     32.688403
PC40  -8764.776217  40951.875047   5611.513172    185.230626
PC41   4107.857722 -27581.273457  -1041.164073   -968.956542
PC42  15895.669852   1414.546919  22933.051552   -925.183214
PC43  23229.565730 -13904.028475   6796.886204   -843.665323
PC44  13644.805697  11051.581084 -21707.883539    314.192576
PC45   2603.555483  20119.187376  19167.567515    506.500883
PC46 -23473.249501  -8344.256068  12620.017020    156.533367
PC60   7254.857541  41528.054514  -1451.249188     -0.599949
PE01  13070.859924 -11141.860706 -24100.002901  -1160.441179
PE02 -13004.233504  11278.347974  24083.712839    236.278734
PE03 -21528.496634  18883.656953  -7523.259193   -457.961088
PE04  10409.655739 -25559.887574 -10688.909738   -823.723509
PE05 -20183.578375    988.355838 -21626.459924   -261.383886
PE07   7093.470466  17281.730285  22971.635268   -567.485250
PE08 -10059.446599  25562.849203  11047.750415   5962.578583
PE09  -7236.403199 -16999.086887 -23117.457519   5583.989151
PE11 -17776.235120 -14631.267597  18582.937528   5652.070167
PE12   4686.135168 -15641.555235  24681.613923   5086.770377
PE13  17402.487814  14662.835141 -18933.415762    419.629638
PE14 -15011.697954  -6819.278971  17776.490214  -1517.171662
PE15  -4583.920605  15592.232774 -24741.034010    800.849560
PE18  13382.396285  15381.063069 -24649.104735  -1663.316924
PE19  22058.504201 -17220.182720   9653.993287    339.035873
PE21  18887.158991   9477.011607 -20723.876517   -678.992319
PE24 -13456.153288 -26016.393987   4325.491298  -1034.241137
PE25 -18901.280370  -9687.060971  20627.609470   -541.545771
PE26  29203.159419   4682.023636  -1097.349772   1522.820236
PE27  14038.833765  25529.850045  -5211.637607    -86.329739
PE30     30.160020  26030.923605  14082.572580   2744.662130
PE31   -993.505545 -26455.700429 -13222.455733   -483.804963
PE33  23820.541841  -7335.939918  15965.300115   -467.001317
PE36 -29088.174190  -5101.396618   1988.717387   -241.125407
PG01  20305.800999  14165.396467 -10340.515971    613.483826
PG02   2455.840423 -15304.433624  22221.447282   -622.892552
PG03  12045.877103  20992.889520  10968.918587   -236.114689
PG04  12222.372160   9470.575937  21608.246501   -203.215993
PG05  -6419.294122 -25675.206106    -73.285899    -49.435005
PG06  14846.907115  -9155.035280  20102.379977     47.473362
PG07  25836.890105   6245.067064  -3283.079769    213.503903
PG08   2483.835305  16824.818268 -20331.385008    -30.612687
PG09  19956.457426  -1656.442314  17398.836300   -357.203998
PG10 -12897.302478   9142.515114 -21180.307160   -171.823515
PG11   3960.709312 -14775.760569  21696.099242     25.833999
PG12 -10277.781705 -22018.153139  10631.450806    -75.450250
PG13   6738.273826 -19011.852062 -17341.452988    164.181402
PG14  13373.476254  -9504.020171 -20883.650816     35.933842
PG15  -5253.429618 -16806.951016 -20169.292824   -132.111200
PG16   -718.501182  25696.232823   5396.054463   -365.047336
PG17  22442.033440 -12727.058825  -5889.307719    481.260904
PG18 -25453.630522  -4257.430969  -6472.258109    337.305551
PG19  20501.292262 -16575.034875   2200.786532     32.704886
PG20    442.409050 -23878.104532  11862.214859    519.931910
PG21  14927.460367  15031.490546 -15634.834877    134.175734
PG22  10422.500097  24324.108151   3507.027433   -551.406058
PG23 -15830.695599  -3603.142725 -21054.443412     77.947137
PG24 -17105.697460 -15094.818353 -14178.180359    191.534735
PG25 -15323.735398 -12139.693158  17836.277288    182.031538
PG26  -6525.524123  20294.784781  15610.078161    116.418137
PG27  -7844.799604  20514.540837 -14846.492930   -170.362312
PG28  10637.433617 -15764.000519 -18075.748172    529.305859
PG29 -18844.854204  -1152.893969  18656.968712   -387.953259
PG30  22147.423369  -3359.179109 -14380.590144   -456.346545
PG31 -13686.525216  10353.130289  20297.568914   -131.353662
PG32 -21058.605376  15564.608150  -3726.236172     11.237591
PJ01 -24432.894527  32228.795591  -7451.562941   -426.748259
PJ02 -25596.393832  22682.568286  29628.122881     -1.129615
PJ03 -34598.170825  20317.515276  -8494.874800     -0.419553
PJ07 -25407.136301  33654.728880     29.355514      0.010977
PR01  13249.891577 -16106.886962  14676.805883     83.029076
PR02   6736.342761 -24075.483763  -5179.993382    487.834150
PR03  -3718.569314 -16106.947646 -19403.737505     40.380823
PR04 -11697.215885    911.786436 -22621.610140     97.965028
PR05 -13311.842774  17278.915198 -13195.835453     76.213947
PR06  -5408.035333  24137.705524   6174.459820    202.375581
PR07   4176.903647  15473.264816  19866.088455    -41.846996
PR08  11860.949330   -959.082072  22619.509918    -60.128834
PR09   4692.659109  18570.130270  16909.240361      5.401997
PR10  15441.626155  20130.047030   2289.852221    -73.386597
PR11  17927.519708  10381.946024 -14878.503451     45.333235
PR12   9325.174165  -5908.750594 -22962.616190    249.322716
PR13  -4194.834831 -18043.518254 -17541.610385    -58.405830
PR14 -15810.688639 -19975.112228  -1051.661725     67.041405
PR15 -17727.634856 -10070.991657  15350.882759    102.409652
PR16  -8603.240247   7113.552843  22920.716815    -18.676973
PR17 -12414.803585  -7682.411111  20930.502200    445.273705
PR18 -23994.670118   -290.992224   8591.493670     85.104001
PR19 -23543.895635   6314.795838  -7538.992555   -153.397368
PR20  -7580.473586  10711.470598 -21865.495021    -53.263726
PR21  13514.857291   7224.205948 -20388.272442   -227.541556
PR22  24396.441537    -94.080592  -7622.490041   -125.152724
PR23  19620.174011  -8985.463345  13582.172881    -10.453698
PR24   6577.654824 -11293.680200  21910.780860     52.414269
EOF
